FLOCK 4G-36             
1 62675U 25009BU  26068.70726311  .00013573  00000+0  51122-3 0  9993
2 62675  97.4053 151.0513 0003474 324.2456  35.8550 15.27209548 63701
STARLINK-36442          
1 67413U 26005K   26068.52091073  .00035710  00000+0  13004-2 0  9998
2 67413  43.0005 238.6778 0001096 293.6702  66.4034 15.27594216  8677
